KUIPER-00008            
1 63724U 25088A   25277.87349334  .00009684  00000+0  79987-3 0  9998
2 63724  51.8894  77.4265 0010899 296.8049  63.1807 14.99496486 24680
KUIPER-00009            
1 63725U 25088B   25277.72160994  .00004224  00000+0  58272-3 0  9995
2 63725  51.9003  76.2966 0011967 307.3095  52.6776 14.79915183 24681
KUIPER-00010            
1 63726U 25088C   25278.50001156 -.00039286  00000+0 -25408-2 0  9999
2 63726  51.8845  51.3098 0011726 344.1239 253.3453 15.07621183  5358
KUIPER-00011            
1 63727U 25088D   25278.50001156 -.00035278  00000+0 -42907-2 0  9990
2 63727  51.8974  56.9619 0011360 328.1561 107.7958 14.82981293  3001
KUIPER-00012            
1 63728U 25088E   25278.07492937  .00014925  00000+0  67568-3 0  9999
2 63728  51.8748  53.2241 0010355 313.7528  46.2594 15.21045406 24746
KUIPER-00013            
1 63729U 25088F   25277.72038597  .00002496  00000+0  35631-3 0  9995
2 63729  51.9022  77.7662 0007301 227.0260 133.0091 14.79939697 24471
KUIPER-00014            
1 63730U 25088G   25277.85386874  .00025028  00000+0  33005-2 0  9993
2 63730  51.9025  78.1421 0007221 294.0086  66.0120 14.79909367 24294
KUIPER-00015            
1 63731U 25088H   25277.90622745  .00005119  00000+0  67308-3 0  9993
2 63731  51.8974  89.7454 0009860 281.2033  78.7822 14.81585323 24599
